start=new Date('2023-02-04T00:00:00.000Z').valueOf();
sats=[{"TIME_SYSTEM":"UTC","NORAD_CAT_ID":"54052","ECCENTRICITY":"0.00013100","BSTAR":"-0.01050700000000","INCLINATION":"53.2156","OBJECT_ID":"2022-136B","OBJECT_TYPE":"PAYLOAD","LAUNCH_DATE":"2022-10-20","ARG_OF_PERICENTER":"86.6803","REV_AT_EPOCH":"130","COUNTRY_CODE":"US","MEAN_ELEMENT_THEORY":"SGP4","GP_ID":"224350982","SITE":"AFETR","EPOCH":"2023-02-04T00:00:00.999648","CENTER_NAME":"EARTH","PERIAPSIS":"374.019","MEAN_MOTION_DDOT":"0.0000000000000","MEAN_MOTION":"15.64422124","OBJECT_NAME":"STARLINK-5189","APOAPSIS":"375.788","REF_FRAME":"TEME","TLE_LINE1":"1 54052U 22136B   23035.00001157 -.00933352  00000-0 -10507-1 0  9998","EPHEMERIS_TYPE":"0","RA_OF_ASC_NODE":"341.1410","PERIOD":"92.047","MEAN_MOTION_DOT":"-0.00933352","RCS_SIZE":"LARGE","SEMIMAJOR_AXIS":"6753.038","TLE_LINE2":"2 54052  53.2156 341.1410 0001310  86.6803 146.4912 15.64422124  1302","FILE":"3770748","ELEMENT_SET_NO":"999","MEAN_ANOMALY":"146.4912","CLASSIFICATION_TYPE":"U","DECAY_DATE":null},{"ELEMENT_SET_NO":"999","FILE":"3770323","RCS_SIZE":"LARGE","MEAN_MOTION_DOT":"0.00002121","TLE_LINE2":"2 54053  53.2191  18.4540 0001276  84.3072 275.8066 15.08847834 16203","SEMIMAJOR_AXIS":"6917.856","DECAY_DATE":null,"MEAN_ANOMALY":"275.8066","CLASSIFICATION_TYPE":"U","REF_FRAME":"TEME","EPHEMERIS_TYPE":"0","TLE_LINE1":"1 54053U 22136C   23034.38630524  .00002121  00000-0  15129-3 0  9991","APOAPSIS":"540.604","OBJECT_NAME":"STARLINK-5176","PERIOD":"95.437","RA_OF_ASC_NODE":"18.4540","EPOCH":"2023-02-03T09:16:16.772736","SITE":"AFETR","GP_ID":"224314729","MEAN_ELEMENT_THEORY":"SGP4","COUNTRY_CODE":"US","MEAN_MOTION_DDOT":"0.0000000000000","MEAN_MOTION":"15.08847834","PERIAPSIS":"538.839","CENTER_NAME":"EARTH","ECCENTRICITY":"0.00012760","TIME_SYSTEM":"UTC","NORAD_CAT_ID":"54053","ARG_OF_PERICENTER":"84.3072","LAUNCH_DATE":"2022-10-20","REV_AT_EPOCH":"1620","INCLINATION":"53.2191","BSTAR":"0.00015129000000","OBJECT_ID":"2022-136C","OBJECT_TYPE":"PAYLOAD"},{"COUNTRY_CODE":"US","EPOCH":"2023-02-03T07:30:16.750368","GP_ID":"224314980","MEAN_ELEMENT_THEORY":"SGP4","SITE":"AFETR","PERIAPSIS":"538.899","CENTER_NAME":"EARTH","MEAN_MOTION":"15.08846100","MEAN_MOTION_DDOT":"0.0000000000000","NORAD_CAT_ID":"54054","TIME_SYSTEM":"UTC","ECCENTRICITY":"0.00011970","OBJECT_TYPE":"PAYLOAD","OBJECT_ID":"2022-136D","INCLINATION":"53.2192","BSTAR":"0.00004811000000","REV_AT_EPOCH":"1619","LAUNCH_DATE":"2022-10-20","ARG_OF_PERICENTER":"86.4580","TLE_LINE2":"2 54054  53.2192  18.7005 0001197  86.4580 273.6549 15.08846100 16198","SEMIMAJOR_AXIS":"6917.862","RCS_SIZE":"LARGE","MEAN_MOTION_DOT":"0.00000478","ELEMENT_SET_NO":"999","FILE":"3770323","CLASSIFICATION_TYPE":"U","MEAN_ANOMALY":"273.6549","DECAY_DATE":null,"OBJECT_NAME":"STARLINK-5163","APOAPSIS":"540.555","EPHEMERIS_TYPE":"0","TLE_LINE1":"1 54054U 22136D   23034.31269387  .00000478  00000-0  48110-4 0  9990","REF_FRAME":"TEME","RA_OF_ASC_NODE":"18.7005","PERIOD":"95.437"},{"EPOCH":"2023-02-03T09:10:58.500192","GP_ID":"224315231","MEAN_ELEMENT_THEORY":"SGP4","SITE":"AFETR","COUNTRY_CODE":"US","MEAN_MOTION_DDOT":"0.0000000000000","MEAN_MOTION":"15.08846518","PERIAPSIS":"538.784","CENTER_NAME":"EARTH","ECCENTRICITY":"0.00013610","TIME_SYSTEM":"UTC","NORAD_CAT_ID":"54055","ARG_OF_PERICENTER":"89.1439","LAUNCH_DATE":"2022-10-20","REV_AT_EPOCH":"1620","INCLINATION":"53.2184","BSTAR":"0.00015922000000","OBJECT_ID":"2022-136E","OBJECT_TYPE":"PAYLOAD","ELEMENT_SET_NO":"999","FILE":"3770323","RCS_SIZE":"LARGE","MEAN_MOTION_DOT":"0.00002247","TLE_LINE2":"2 54055  53.2184  18.4279 0001361  89.1439 270.9709 15.08846518 16209","SEMIMAJOR_AXIS":"6917.860","DECAY_DATE":null,"MEAN_ANOMALY":"270.9709","CLASSIFICATION_TYPE":"U","REF_FRAME":"TEME","EPHEMERIS_TYPE":"0","TLE_LINE1":"1 54055U 22136E   23034.38262153  .00002247  00000-0  15922-3 0  9992","OBJECT_NAME":"STARLINK-5158","APOAPSIS":"540.667","PERIOD":"95.437","RA_OF_ASC_NODE":"18.4279"},{"MEAN_MOTION":"15.08850572","MEAN_MOTION_DDOT":"0.0000000000000","CENTER_NAME":"EARTH","PERIAPSIS":"538.855","SITE":"AFETR","GP_ID":"224313980","MEAN_ELEMENT_THEORY":"SGP4","EPOCH":"2023-02-03T09:01:44.288256","COUNTRY_CODE":"US","REV_AT_EPOCH":"1620","LAUNCH_DATE":"2022-10-20","ARG_OF_PERICENTER":"97.9825","OBJECT_TYPE":"PAYLOAD","OBJECT_ID":"2022-136F","BSTAR":"0.00018600000000","INCLINATION":"53.2171","ECCENTRICITY":"0.00012400","NORAD_CAT_ID":"54056","TIME_SYSTEM":"UTC","DECAY_DATE":null,"CLASSIFICATION_TYPE":"U","MEAN_ANOMALY":"262.1308","FILE":"3770323","ELEMENT_SET_NO":"999","SEMIMAJOR_AXIS":"6917.848","TLE_LINE2":"2 54056  53.2171  18.3849 0001240  97.9825 262.1308 15.08850572 16203","MEAN_MOTION_DOT":"0.00002674","RCS_SIZE":"LARGE","PERIOD":"95.437","RA_OF_ASC_NODE":"18.3849","TLE_LINE1":"1 54056U 22136F   23034.37620704  .00002674  00000-0  18600-3 0  9992","EPHEMERIS_TYPE":"0","REF_FRAME":"TEME","OBJECT_NAME":"STARLINK-5226","APOAPSIS":"540.571"},{"DECAY_DATE":null,"MEAN_ANOMALY":"273.0776","CLASSIFICATION_TYPE":"U","FILE":"3770323","ELEMENT_SET_NO":"999","MEAN_MOTION_DOT":"0.00080389","RCS_SIZE":"LARGE","SEMIMAJOR_AXIS":"6725.557","TLE_LINE2":"2 54057  53.2110 348.4079 0003767  87.0676 273.0776 15.74020604 16612","PERIOD":"91.485","RA_OF_ASC_NODE":"348.4079","REF_FRAME":"TEME","TLE_LINE1":"1 54057U 22136G   23034.25679314  .00080389  00000-0  55182-3 0  9996","EPHEMERIS_TYPE":"0","APOAPSIS":"349.955","OBJECT_NAME":"STARLINK-5216","MEAN_MOTION_DDOT":"0.0000000000000","MEAN_MOTION":"15.74020604","CENTER_NAME":"EARTH","PERIAPSIS":"344.888","GP_ID":"224314230","MEAN_ELEMENT_THEORY":"SGP4","SITE":"AFETR","EPOCH":"2023-02-03T06:09:46.927296","COUNTRY_CODE":"US","ARG_OF_PERICENTER":"87.0676","LAUNCH_DATE":"2022-10-20","REV_AT_EPOCH":"1661","BSTAR":"0.00055182000000","INCLINATION":"53.2110","OBJECT_ID":"2022-136G","OBJECT_TYPE":"PAYLOAD","ECCENTRICITY":"0.00037670","TIME_SYSTEM":"UTC","NORAD_CAT_ID":"54057"},{"LAUNCH_DATE":"2022-10-20","ARG_OF_PERICENTER":"99.7957","REV_AT_EPOCH":"1620","INCLINATION":"53.2187","BSTAR":"0.00015347000000","OBJECT_TYPE":"PAYLOAD","OBJECT_ID":"2022-136H","ECCENTRICITY":"0.00012650","TIME_SYSTEM":"UTC","NORAD_CAT_ID":"54058","MEAN_MOTION_DDOT":"0.0000000000000","MEAN_MOTION":"15.08849552","PERIAPSIS":"538.841","CENTER_NAME":"EARTH","EPOCH":"2023-02-03T08:49:44.684256","GP_ID":"224315480","SITE":"AFETR","MEAN_ELEMENT_THEORY":"SGP4","COUNTRY_CODE":"US","PERIOD":"95.437","RA_OF_ASC_NODE":"18.3349","REF_FRAME":"TEME","EPHEMERIS_TYPE":"0","TLE_LINE1":"1 54058U 22136H   23034.36787829  .00002156  00000-0  15347-3 0  9995","OBJECT_NAME":"STARLINK-5167","APOAPSIS":"540.591","DECAY_DATE":null,"MEAN_ANOMALY":"260.3178","CLASSIFICATION_TYPE":"U","ELEMENT_SET_NO":"999","FILE":"3770323","RCS_SIZE":"LARGE","MEAN_MOTION_DOT":"0.00002156","TLE_LINE2":"2 54058  53.2187  18.3349 0001265  99.7957 260.3178 15.08849552 16201","SEMIMAJOR_AXIS":"6917.851"},{"RCS_SIZE":"LARGE","MEAN_MOTION_DOT":"0.00001591","TLE_LINE2":"2 54059  53.2188  18.6602 0001186  88.7321 271.3807 15.08849623 16191","SEMIMAJOR_AXIS":"6917.851","ELEMENT_SET_NO":"999","FILE":"3770323","MEAN_ANOMALY":"271.3807","CLASSIFICATION_TYPE":"U","DECAY_DATE":null,"APOAPSIS":"540.536","OBJECT_NAME":"STARLINK-5173","REF_FRAME":"TEME","EPHEMERIS_TYPE":"0","TLE_LINE1":"1 54059U 22136J   23034.30532163  .00001591  00000-0  11799-3 0  9998","RA_OF_ASC_NODE":"18.6602","PERIOD":"95.437","COUNTRY_CODE":"US","EPOCH":"2023-02-03T07:19:39.788832","MEAN_ELEMENT_THEORY":"SGP4","GP_ID":"224315730","SITE":"AFETR","PERIAPSIS":"538.896","CENTER_NAME":"EARTH","MEAN_MOTION_DDOT":"0.0000000000000","MEAN_MOTION":"15.08849623","TIME_SYSTEM":"UTC","NORAD_CAT_ID":"54059","ECCENTRICITY":"0.00011860","INCLINATION":"53.2188","BSTAR":"0.00011799000000","OBJECT_TYPE":"PAYLOAD","OBJECT_ID":"2022-136J","ARG_OF_PERICENTER":"88.7321","LAUNCH_DATE":"2022-10-20","REV_AT_EPOCH":"1619"},{"ECCENTRICITY":"0.00014190","NORAD_CAT_ID":"54060","TIME_SYSTEM":"UTC","REV_AT_EPOCH":"130","ARG_OF_PERICENTER":"92.4023","LAUNCH_DATE":"2022-10-20","OBJECT_TYPE":"PAYLOAD","OBJECT_ID":"2022-136K","BSTAR":"-0.04631800000000","INCLINATION":"53.2131","SITE":"AFETR","GP_ID":"224350983","MEAN_ELEMENT_THEORY":"SGP4","EPOCH":"2023-02-04T00:00:00.999648","COUNTRY_CODE":"US","MEAN_MOTION":"15.20802382","MEAN_MOTION_DDOT":"0.0000000000000","CENTER_NAME":"EARTH","PERIAPSIS":"502.445","TLE_LINE1":"1 54060U 22136K   23035.00001157 -.00955359  00000-0 -46318-1 0  9997","EPHEMERIS_TYPE":"0","REF_FRAME":"TEME","OBJECT_NAME":"STARLINK-5169","APOAPSIS":"504.398","PERIOD":"94.687","RA_OF_ASC_NODE":"346.1826","FILE":"3770748","ELEMENT_SET_NO":"999","SEMIMAJOR_AXIS":"6881.556","TLE_LINE2":"2 54060  53.2131 346.1826 0001419  92.4023 131.0503 15.20802382  1305","MEAN_MOTION_DOT":"-0.00955359","RCS_SIZE":"LARGE","DECAY_DATE":null,"CLASSIFICATION_TYPE":"U","MEAN_ANOMALY":"131.0503"},{"COUNTRY_CODE":"US","SITE":"AFETR","GP_ID":"224349735","MEAN_ELEMENT_THEORY":"SGP4","EPOCH":"2023-02-04T00:00:00.999648","CENTER_NAME":"EARTH","PERIAPSIS":"453.423","MEAN_MOTION":"15.37221703","MEAN_MOTION_DDOT":"0.0000000000000","NORAD_CAT_ID":"54061","TIME_SYSTEM":"UTC","ECCENTRICITY":"0.00013300","OBJECT_TYPE":"PAYLOAD","OBJECT_ID":"2022-136L","BSTAR":"-0.02777300000000","INCLINATION":"53.2140","REV_AT_EPOCH":"130","LAUNCH_DATE":"2022-10-20","ARG_OF_PERICENTER":"93.7985","SEMIMAJOR_AXIS":"6832.466","TLE_LINE2":"2 54061  53.2140 341.6938 0001330  93.7985 206.7554 15.37221703  1309","MEAN_MOTION_DOT":"-0.00940375","RCS_SIZE":"LARGE","FILE":"3770748","ELEMENT_SET_NO":"999","CLASSIFICATION_TYPE":"U","MEAN_ANOMALY":"206.7554","DECAY_DATE":null,"OBJECT_NAME":"STARLINK-5209","APOAPSIS":"455.240","TLE_LINE1":"1 54061U 22136L   23035.00001157 -.00940375  00000-0 -27773-1 0  9994","EPHEMERIS_TYPE":"0","REF_FRAME":"TEME","RA_OF_ASC_NODE":"341.6938","PERIOD":"93.675"}];
